<?xml version="1.0" encoding="UTF-8"?>
<ndm xmlns:xsi="http://www.w3.org/2001/XMLSchema-instance" xsi:noNamespaceSchemaLocation="https://sanaregistry.org/r/ndmxml_unqualified/ndmxml-2.0.0-master-2.0.xsd">
<omm id="CCSDS_OMM_VERS" version="2.0">
<header><CREATION_DATE/><ORIGINATOR/></header><body><segment><metadata><OBJECT_NAME>ONEWEB-0053</OBJECT_NAME><OBJECT_ID>2020-008AC</OBJECT_ID><CENTER_NAME>EARTH</CENTER_NAME><REF_FRAME>TEME</REF_FRAME><TIME_SYSTEM>UTC</TIME_SYSTEM><MEAN_ELEMENT_THEORY>SGP4</MEAN_ELEMENT_THEORY></metadata><data><meanElements><EPOCH>2023-11-25T04:51:28.864224</EPOCH><MEAN_MOTION>13.10373436</MEAN_MOTION><ECCENTRICITY>.0001739</ECCENTRICITY><INCLINATION>87.8926</INCLINATION><RA_OF_ASC_NODE>221.9771</RA_OF_ASC_NODE><ARG_OF_PERICENTER>67.7812</ARG_OF_PERICENTER><MEAN_ANOMALY>292.3500</MEAN_ANOMALY></meanElements><tleParameters><EPHEMERIS_TYPE>0</EPHEMERIS_TYPE><CLASSIFICATION_TYPE>U</CLASSIFICATION_TYPE><NORAD_CAT_ID>45157</NORAD_CAT_ID><ELEMENT_SET_NO>999</ELEMENT_SET_NO><REV_AT_EPOCH>18546</REV_AT_EPOCH><BSTAR>-.17635E-2</BSTAR><MEAN_MOTION_DOT>-.603E-5</MEAN_MOTION_DOT><MEAN_MOTION_DDOT>0</MEAN_MOTION_DDOT></tleParameters></data></segment></body></omm>
<omm id="CCSDS_OMM_VERS" version="2.0">
<header><CREATION_DATE/><ORIGINATOR/></header><body><segment><metadata><OBJECT_NAME>ONEWEB-0054</OBJECT_NAME><OBJECT_ID>2020-008AD</OBJECT_ID><CENTER_NAME>EARTH</CENTER_NAME><REF_FRAME>TEME</REF_FRAME><TIME_SYSTEM>UTC</TIME_SYSTEM><MEAN_ELEMENT_THEORY>SGP4</MEAN_ELEMENT_THEORY></metadata><data><meanElements><EPOCH>2023-11-25T05:42:58.742496</EPOCH><MEAN_MOTION>13.10374208</MEAN_MOTION><ECCENTRICITY>.0001631</ECCENTRICITY><INCLINATION>87.8920</INCLINATION><RA_OF_ASC_NODE>221.9560</RA_OF_ASC_NODE><ARG_OF_PERICENTER>73.9407</ARG_OF_PERICENTER><MEAN_ANOMALY>286.1900</MEAN_ANOMALY></meanElements><tleParameters><EPHEMERIS_TYPE>0</EPHEMERIS_TYPE><CLASSIFICATION_TYPE>U</CLASSIFICATION_TYPE><NORAD_CAT_ID>45158</NORAD_CAT_ID><ELEMENT_SET_NO>999</ELEMENT_SET_NO><REV_AT_EPOCH>18558</REV_AT_EPOCH><BSTAR>.1993E-2</BSTAR><MEAN_MOTION_DOT>.708E-5</MEAN_MOTION_DOT><MEAN_MOTION_DDOT>0</MEAN_MOTION_DDOT></tleParameters></data></segment></body></omm>
<omm id="CCSDS_OMM_VERS" version="2.0">
<header><CREATION_DATE/><ORIGINATOR/></header><body><segment><metadata><OBJECT_NAME>ONEWEB-0056</OBJECT_NAME><OBJECT_ID>2020-008AE</OBJECT_ID><CENTER_NAME>EARTH</CENTER_NAME><REF_FRAME>TEME</REF_FRAME><TIME_SYSTEM>UTC</TIME_SYSTEM><MEAN_ELEMENT_THEORY>SGP4</MEAN_ELEMENT_THEORY></metadata><data><meanElements><EPOCH>2023-11-25T05:14:52.878048</EPOCH><MEAN_MOTION>13.10378014</MEAN_MOTION><ECCENTRICITY>.0001655</ECCENTRICITY><INCLINATION>87.8926</INCLINATION><RA_OF_ASC_NODE>221.9546</RA_OF_ASC_NODE><ARG_OF_PERICENTER>64.8665</ARG_OF_PERICENTER><MEAN_ANOMALY>295.2634</MEAN_ANOMALY></meanElements><tleParameters><EPHEMERIS_TYPE>0</EPHEMERIS_TYPE><CLASSIFICATION_TYPE>U</CLASSIFICATION_TYPE><NORAD_CAT_ID>45159</NORAD_CAT_ID><ELEMENT_SET_NO>999</ELEMENT_SET_NO><REV_AT_EPOCH>18573</REV_AT_EPOCH><BSTAR>-.1257E-3</BSTAR><MEAN_MOTION_DOT>-.31E-6</MEAN_MOTION_DOT><MEAN_MOTION_DDOT>0</MEAN_MOTION_DDOT></tleParameters></data></segment></body></omm>
<omm id="CCSDS_OMM_VERS" version="2.0">
<header><CREATION_DATE/><ORIGINATOR/></header><body><segment><metadata><OBJECT_NAME>ONEWEB-0057</OBJECT_NAME><OBJECT_ID>2020-008AF</OBJECT_ID><CENTER_NAME>EARTH</CENTER_NAME><REF_FRAME>TEME</REF_FRAME><TIME_SYSTEM>UTC</TIME_SYSTEM><MEAN_ELEMENT_THEORY>SGP4</MEAN_ELEMENT_THEORY></metadata><data><meanElements><EPOCH>2023-11-25T05:24:16.902432</EPOCH><MEAN_MOTION>13.10376302</MEAN_MOTION><ECCENTRICITY>.0001604</ECCENTRICITY><INCLINATION>87.8929</INCLINATION><RA_OF_ASC_NODE>221.9482</RA_OF_ASC_NODE><ARG_OF_PERICENTER>64.6415</ARG_OF_PERICENTER><MEAN_ANOMALY>295.4878</MEAN_ANOMALY></meanElements><tleParameters><EPHEMERIS_TYPE>0</EPHEMERIS_TYPE><CLASSIFICATION_TYPE>U</CLASSIFICATION_TYPE><NORAD_CAT_ID>45160</NORAD_CAT_ID><ELEMENT_SET_NO>999</ELEMENT_SET_NO><REV_AT_EPOCH>18590</REV_AT_EPOCH><BSTAR>.11484E-2</BSTAR><MEAN_MOTION_DOT>.414E-5</MEAN_MOTION_DOT><MEAN_MOTION_DDOT>0</MEAN_MOTION_DDOT></tleParameters></data></segment></body></omm>
<omm id="CCSDS_OMM_VERS" version="2.0">
<header><CREATION_DATE/><ORIGINATOR/></header><body><segment><metadata><OBJECT_NAME>ONEWEB-0058</OBJECT_NAME><OBJECT_ID>2020-008AG</OBJECT_ID><CENTER_NAME>EARTH</CENTER_NAME><REF_FRAME>TEME</REF_FRAME><TIME_SYSTEM>UTC</TIME_SYSTEM><MEAN_ELEMENT_THEORY>SGP4</MEAN_ELEMENT_THEORY></metadata><data><meanElements><EPOCH>2023-11-25T05:05:43.447488</EPOCH><MEAN_MOTION>13.10360624</MEAN_MOTION><ECCENTRICITY>.0001924</ECCENTRICITY><INCLINATION>87.8935</INCLINATION><RA_OF_ASC_NODE>221.9981</RA_OF_ASC_NODE><ARG_OF_PERICENTER>78.0879</ARG_OF_PERICENTER><MEAN_ANOMALY>282.0464</MEAN_ANOMALY></meanElements><tleParameters><EPHEMERIS_TYPE>0</EPHEMERIS_TYPE><CLASSIFICATION_TYPE>U</CLASSIFICATION_TYPE><NORAD_CAT_ID>45161</NORAD_CAT_ID><ELEMENT_SET_NO>999</ELEMENT_SET_NO><REV_AT_EPOCH>18597</REV_AT_EPOCH><BSTAR>.53407E-2</BSTAR><MEAN_MOTION_DOT>.1877E-4</MEAN_MOTION_DOT><MEAN_MOTION_DDOT>0</MEAN_MOTION_DDOT></tleParameters></data></segment></body></omm>
<omm id="CCSDS_OMM_VERS" version="2.0">
<header><CREATION_DATE/><ORIGINATOR/></header><body><segment><metadata><OBJECT_NAME>ONEWEB-0059</OBJECT_NAME><OBJECT_ID>2020-008AH</OBJECT_ID><CENTER_NAME>EARTH</CENTER_NAME><REF_FRAME>TEME</REF_FRAME><TIME_SYSTEM>UTC</TIME_SYSTEM><MEAN_ELEMENT_THEORY>SGP4</MEAN_ELEMENT_THEORY></metadata><data><meanElements><EPOCH>2023-11-25T05:00:51.865632</EPOCH><MEAN_MOTION>13.10375683</MEAN_MOTION><ECCENTRICITY>.0001441</ECCENTRICITY><INCLINATION>87.8930</INCLINATION><RA_OF_ASC_NODE>221.9694</RA_OF_ASC_NODE><ARG_OF_PERICENTER>74.3678</ARG_OF_PERICENTER><MEAN_ANOMALY>285.7609</MEAN_ANOMALY></meanElements><tleParameters><EPHEMERIS_TYPE>0</EPHEMERIS_TYPE><CLASSIFICATION_TYPE>U</CLASSIFICATION_TYPE><NORAD_CAT_ID>45162</NORAD_CAT_ID><ELEMENT_SET_NO>999</ELEMENT_SET_NO><REV_AT_EPOCH>18587</REV_AT_EPOCH><BSTAR>-.11624E-2</BSTAR><MEAN_MOTION_DOT>-.393E-5</MEAN_MOTION_DOT><MEAN_MOTION_DDOT>0</MEAN_MOTION_DDOT></tleParameters></data></segment></body></omm>
<omm id="CCSDS_OMM_VERS" version="2.0">
<header><CREATION_DATE/><ORIGINATOR/></header><body><segment><metadata><OBJECT_NAME>ONEWEB-0062</OBJECT_NAME><OBJECT_ID>2020-008AJ</OBJECT_ID><CENTER_NAME>EARTH</CENTER_NAME><REF_FRAME>TEME</REF_FRAME><TIME_SYSTEM>UTC</TIME_SYSTEM><MEAN_ELEMENT_THEORY>SGP4</MEAN_ELEMENT_THEORY></metadata><data><meanElements><EPOCH>2023-11-25T05:40:40.215648</EPOCH><MEAN_MOTION>13.10373882</MEAN_MOTION><ECCENTRICITY>.000169</ECCENTRICITY><INCLINATION>87.8923</INCLINATION><RA_OF_ASC_NODE>221.9508</RA_OF_ASC_NODE><ARG_OF_PERICENTER>75.3725</ARG_OF_PERICENTER><MEAN_ANOMALY>284.7589</MEAN_ANOMALY></meanElements><tleParameters><EPHEMERIS_TYPE>0</EPHEMERIS_TYPE><CLASSIFICATION_TYPE>U</CLASSIFICATION_TYPE><NORAD_CAT_ID>45163</NORAD_CAT_ID><ELEMENT_SET_NO>999</ELEMENT_SET_NO><REV_AT_EPOCH>18574</REV_AT_EPOCH><BSTAR>.20821E-2</BSTAR><MEAN_MOTION_DOT>.74E-5</MEAN_MOTION_DOT><MEAN_MOTION_DDOT>0</MEAN_MOTION_DDOT></tleParameters></data></segment></body></omm>
<omm id="CCSDS_OMM_VERS" version="2.0">
<header><CREATION_DATE/><ORIGINATOR/></header><body><segment><metadata><OBJECT_NAME>ONEWEB-0065</OBJECT_NAME><OBJECT_ID>2020-008AK</OBJECT_ID><CENTER_NAME>EARTH</CENTER_NAME><REF_FRAME>TEME</REF_FRAME><TIME_SYSTEM>UTC</TIME_SYSTEM><MEAN_ELEMENT_THEORY>SGP4</MEAN_ELEMENT_THEORY></metadata><data><meanElements><EPOCH>2023-11-25T05:07:51.986496</EPOCH><MEAN_MOTION>13.10378173</MEAN_MOTION><ECCENTRICITY>.0001626</ECCENTRICITY><INCLINATION>87.8930</INCLINATION><RA_OF_ASC_NODE>221.9529</RA_OF_ASC_NODE><ARG_OF_PERICENTER>70.3418</ARG_OF_PERICENTER><MEAN_ANOMALY>289.7885</MEAN_ANOMALY></meanElements><tleParameters><EPHEMERIS_TYPE>0</EPHEMERIS_TYPE><CLASSIFICATION_TYPE>U</CLASSIFICATION_TYPE><NORAD_CAT_ID>45164</NORAD_CAT_ID><ELEMENT_SET_NO>999</ELEMENT_SET_NO><REV_AT_EPOCH>18543</REV_AT_EPOCH><BSTAR>-.44435E-3</BSTAR><MEAN_MOTION_DOT>-.142E-5</MEAN_MOTION_DOT><MEAN_MOTION_DDOT>0</MEAN_MOTION_DDOT></tleParameters></data></segment></body></omm>

</ndm>
