ONEWEB-0053             
1 45157U 20008AC  23329.20241741 -.00000603  00000+0 -17635-2 0  9996
2 45157  87.8926 221.9771 0001739  67.7812 292.3500 13.10373436185460
ONEWEB-0054             
1 45158U 20008AD  23329.23817989  .00000708  00000+0  19930-2 0  9997
2 45158  87.8920 221.9560 0001631  73.9407 286.1900 13.10374208185587
ONEWEB-0056             
1 45159U 20008AE  23329.21866757 -.00000031  00000+0 -12570-3 0  9998
2 45159  87.8926 221.9546 0001655  64.8665 295.2634 13.10378014185730
ONEWEB-0057             
1 45160U 20008AF  23329.22519563  .00000414  00000+0  11484-2 0  9996
2 45160  87.8929 221.9482 0001604  64.6415 295.4878 13.10376302185908
ONEWEB-0058             
1 45161U 20008AG  23329.21230842  .00001877  00000+0  53407-2 0  9991
2 45161  87.8935 221.9981 0001924  78.0879 282.0464 13.10360624185978
ONEWEB-0059             
1 45162U 20008AH  23329.20893363 -.00000393  00000+0 -11624-2 0  9993
2 45162  87.8930 221.9694 0001441  74.3678 285.7609 13.10375683185876
ONEWEB-0062             
1 45163U 20008AJ  23329.23657657  .00000740  00000+0  20821-2 0  9994
2 45163  87.8923 221.9508 0001690  75.3725 284.7589 13.10373882185744
ONEWEB-0065             
1 45164U 20008AK  23329.21379614 -.00000142  00000+0 -44435-3 0  9993
2 45164  87.8930 221.9529 0001626  70.3418 289.7885 13.10378173185437
